NORAD_CAT_ID,OBJECT_NAME,OBJECT_TYPE,EPOCH,MEAN_MOTION,ECCENTRICITY,INCLINATION,RA_OF_ASC_NODE,ARG_OF_PERICENTER,MEAN_ANOMALY,BSTAR,MEAN_MOTION_DOT,MEAN_MOTION_DDOT,TLE_LINE0,TLE_LINE1,TLE_LINE2,SEMIMAJOR_AXIS,PERIOD,APOGEE,PERIGEE,DECAYED
49727.0,STARLINK-3242,PAYLOAD,2022-07-18 19:03:52,15.08856204,0.0001513,53.2198,9.2676,74.7742,285.3418,-6.7277e-05,-1.359e-05,0.0,0 STARLINK-3242,1 49727U 21115D   22199.79435298 -.00001359  00000-0 -67277-4 0  9992,2 49727  53.2198   9.2676 0001513  74.7742 285.3418 15.08856204 35738,6917.831,95.437,540.743,538.649,0.0
49727.0,STARLINK-3242,PAYLOAD,2022-07-19 04:36:11,15.08838353,0.0001474,53.2197,7.4834,75.24,284.8755,0.00011295,1.51e-05,0.0,0 STARLINK-3242,1 49727U 21115D   22200.19179860  .00001510  00000-0  11295-3 0  9994,2 49727  53.2197   7.4834 0001474  75.2400 284.8755 15.08838353 35795,6917.885,95.438,540.77,538.731,0.0
49727.0,STARLINK-3242,PAYLOAD,2022-07-19 10:57:45,15.08822761,0.00017,53.2194,6.2938,78.1835,281.9348,2.9942e-05,1.88e-06,0.0,0 STARLINK-3242,1 49727U 21115D   22200.45677312  .00000188  00000-0  29942-4 0  9997,2 49727  53.2194   6.2938 0001700  78.1835 281.9348 15.08822761 35837,6917.933000000001,95.439,540.974,538.622,0.0
49727.0,STARLINK-3242,PAYLOAD,2022-07-19 17:19:16,15.08834796,0.0001361,53.2193,5.104,79.5103,280.6043,0.00012805,1.75e-05,0.0,0 STARLINK-3242,1 49727U 21115D   22200.72172429  .00001750  00000-0  12805-3 0  9991,2 49727  53.2193   5.1040 0001361  79.5103 280.6043 15.08834796 35877,6917.896,95.438,540.703,538.82,0.0
49727.0,STARLINK-3242,PAYLOAD,2022-07-19 18:54:39,15.08838031,0.0001444,53.2195,4.8059,81.7749,278.3407,0.00014032,1.946e-05,0.0,0 STARLINK-3242,1 49727U 21115D   22200.78796235  .00001946  00000-0  14032-3 0  9995,2 49727  53.2195   4.8059 0001444  81.7749 278.3407 15.08838031 34770,6917.886,95.438,540.75,538.752,0.0
49727.0,STARLINK-3242,PAYLOAD,2022-07-20 09:13:06,15.08860341,0.0001561,53.2189,2.1316,79.4729,280.6439,0.00019043,2.746e-05,0.0,0 STARLINK-3242,1 49727U 21115D   22201.38410687  .00002746  00000-0  19043-3 0  9992,2 49727  53.2189   2.1316 0001561  79.4729 280.6439 15.08860341 35975,6917.818,95.436,540.763,538.6030000000002,0.0
49727.0,STARLINK-3242,PAYLOAD,2022-07-20 13:59:16,15.08857912,0.0001469,53.2195,1.2389,78.208,281.9077,0.00020554,2.986e-05,0.0,0 STARLINK-3242,1 49727U 21115D   22201.58282785  .00002986  00000-0  20554-3 0  9995,2 49727  53.2195   1.2389 0001469  78.2080 281.9077 15.08857912 34898,6917.826,95.436,540.707,538.674,0.0
49727.0,STARLINK-3242,PAYLOAD,2022-07-20 17:10:03,15.08851932,0.0001304,53.2174,0.6445,59.4181,300.694,0.00017207,2.453e-05,0.0,0 STARLINK-3242,1 49727U 21115D   22201.71531428  .00002453  00000-0  17207-3 0  9991,2 49727  53.2174   0.6445 0001304  59.4181 300.6940 15.08851932 34919,6917.844,95.437,540.611,538.807,0.0
49727.0,STARLINK-3242,PAYLOAD,2022-07-21 17:00:51,15.0883017,0.0001399,53.2165,356.1831,75.8123,284.3024,5.0568e-05,5.17e-06,0.0,0 STARLINK-3242,1 49727U 21115D   22202.70892646  .00000517  00000-0  50568-4 0  9990,2 49727  53.2165 356.1831 0001399  75.8123 284.3024 15.08830170 36171,6917.91,95.438,540.743,538.808,0.0
49727.0,STARLINK-3242,PAYLOAD,2022-07-21 18:36:14,15.08833135,0.0001378,53.2167,355.8853,76.4987,283.6159,-5.4248e-05,-1.151e-05,0.0,0 STARLINK-3242,1 49727U 21115D   22202.77516569 -.00001151  00000-0 -54248-4 0  9990,2 49727  53.2167 355.8853 0001378  76.4987 283.6159 15.08833135 35078,6917.901,95.438,540.72,538.813,0.0
49727.0,STARLINK-3242,PAYLOAD,2022-07-21 21:47:00,15.08832835,0.0001368,53.2174,355.2915,76.3175,283.7969,2.076e-05,4.2e-07,0.0,0 STARLINK-3242,1 49727U 21115D   22202.90764843  .00000042  00000-0  20760-4 0  9993,2 49727  53.2174 355.2915 0001368  76.3175 283.7969 15.08832835 35094,6917.901999999999,95.438,540.714,538.821,0.0
49727.0,STARLINK-3242,PAYLOAD,2022-07-22 08:54:42,15.08842305,0.0001226,53.2175,353.2102,73.3282,286.7845,2.787e-05,1.56e-06,0.0,0 STARLINK-3242,1 49727U 21115D   22203.37132162  .00000156  00000-0  27870-4 0  9993,2 49727  53.2175 353.2102 0001226  73.3282 286.7845 15.08842305 36270,6917.873000000001,95.437,540.586,538.89,0.0
49727.0,STARLINK-3242,PAYLOAD,2022-07-22 18:27:00,15.088482999999998,0.0001341999999999,53.2175,351.4263,73.5143,286.5996,9.3225e-05,1.196e-05,0.0,0 STARLINK-3242,1 49727U 21115D   22203.76875475  .00001196  00000-0  93225-4 0  9999,2 49727  53.2175 351.4263 0001342  73.5143 286.5996 15.08848300 35225,6917.855,95.437,540.648,538.7919999999998,0.0
49727.0,STARLINK-3242,PAYLOAD,2022-07-23 08:45:29,15.08836715,0.0001346,53.2178,348.7504,74.1259,285.9881,0.00017109,2.436e-05,0.0,0 STARLINK-3242,1 49727U 21115D   22204.36491984  .00002436  00000-0  17109-3 0  9999,2 49727  53.2178 348.7504 0001346  74.1259 285.9881 15.08836715 36420,6917.89,95.438,540.687,538.8240000000002,0.0
49727.0,STARLINK-3242,PAYLOAD,2022-07-23 13:31:39,15.08826676,0.0001236,53.2176,347.858,67.9854,292.1269,8.3095e-05,1.034e-05,0.0,0 STARLINK-3242,1 49727U 21115D   22204.56365020  .00001034  00000-0  83095-4 0  9993,2 49727  53.2176 347.8580 0001236  67.9854 292.1269 15.08826676 35346,6917.920999999999,95.438,540.641,538.931,0.0
49727.0,STARLINK-3242,PAYLOAD,2022-07-23 16:42:25,15.08832041,0.0001339,53.2171,347.2631,71.6218,288.492,2.9119e-05,1.75e-06,0.0,0 STARLINK-3242,1 49727U 21115D   22204.69612520  .00000175  00000-0  29119-4 0  9999,2 49727  53.2171 347.2631 0001339  71.6218 288.4920 15.08832041 36472,6917.905,95.438,540.696,538.8430000000002,0.0
49727.0,STARLINK-3242,PAYLOAD,2022-07-24 13:22:25,15.08844174,0.0001343,53.2172,343.3973,72.6389,287.475,4.0439e-05,3.56e-06,0.0,0 STARLINK-3242,1 49727U 21115D   22205.55723977  .00000356  00000-0  40439-4 0  9993,2 49727  53.2172 343.3973 0001343  72.6389 287.4750 15.08844174 35495,6917.868,95.437,540.6619999999998,538.804,0.0
49727.0,STARLINK-3242,PAYLOAD,2022-07-24 18:08:34,15.08845394,0.0001314,53.218,342.5053,71.6325,288.481,6.5366e-05,7.53e-06,0.0,0 STARLINK-3242,1 49727U 21115D   22205.75596052  .00000753  00000-0  65366-4 0  9994,2 49727  53.2180 342.5053 0001314  71.6325 288.4810 15.08845394 35528,6917.864000000001,95.437,540.638,538.82,0.0
49727.0,STARLINK-3242,PAYLOAD,2022-07-25 10:02:28,15.08808073,9.51e-05,53.218,339.532,74.4769,285.6328,0.00014919,2.085e-05,0.0,0 STARLINK-3242,1 49727U 21115D   22206.41838322  .00002085  00000-0  14919-3 0  9994,2 49727  53.2180 339.5320 0000951  74.4769 285.6328 15.08808073 35627,6917.978,95.44,540.501,539.185,0.0
49727.0,STARLINK-3242,PAYLOAD,2022-07-25 17:59:23,15.08824866,0.0001328,53.218,338.045,71.8787,288.2349,-3.9512e-05,-9.16e-06,0.0,0 STARLINK-3242,1 49727U 21115D   22206.74958020 -.00000916  00000-0 -39512-4 0  9998,2 49727  53.2180 338.0450 0001328  71.8787 288.2349 15.08824866 36783,6917.927,95.439,540.71,538.873,0.0
49727.0,STARLINK-3242,PAYLOAD,2022-07-26 13:04:01,15.08832182,0.0001399,53.2184,334.4771,70.444,289.6703,1.8418e-05,5e-08,0.0,0 STARLINK-3242,1 49727U 21115D   22207.54446045  .00000005  00000-0  18418-4 0  9995,2 49727  53.2184 334.4771 0001399  70.4440 289.6703 15.08832182 35791,6917.904,95.438,540.737,538.8009999999998,0.0
49727.0,STARLINK-3242,PAYLOAD,2022-07-26 17:50:10,15.08834503,0.0001381,53.2182,333.5848,69.9751,290.139,2.0887e-06,-2.55e-06,0.0,0 STARLINK-3242,1 49727U 21115D   22207.74318015 -.00000255  00000-0  20887-5 0  9994,2 49727  53.2182 333.5848 0001381  69.9751 290.1390 15.08834503 36938,6917.897,95.438,540.7180000000002,538.807,0.0
49727.0,STARLINK-3242,PAYLOAD,2022-07-27 14:30:11,15.08833491,0.0001239,53.2175,329.7188,70.5596,289.553,0.00019496,2.816e-05,0.0,0 STARLINK-3242,1 49727U 21115D   22208.60429872  .00002816  00000-0  19496-3 0  9990,2 49727  53.2175 329.7188 0001239  70.5596 289.5530 15.08833491 35955,6917.9,95.438,540.622,538.908,0.0
49727.0,STARLINK-3242,PAYLOAD,2022-07-28 01:37:53,15.08841401,0.0001266,53.2176,327.6375,69.4929,290.6199,0.00018458,2.651e-05,0.0,0 STARLINK-3242,1 49727U 21115D   22209.06797498  .00002651  00000-0  18458-3 0  9997,2 49727  53.2176 327.6375 0001266  69.4929 290.6199 15.08841401 37134,6917.876,95.437,540.617,538.865,0.0
49727.0,STARLINK-3242,PAYLOAD,2022-07-28 11:10:11,15.08848244,0.000126,53.2174,325.8533,68.7712,291.3415,0.00019154,2.762e-05,0.0,0 STARLINK-3242,1 49727U 21115D   22209.46541004  .00002762  00000-0  19154-3 0  9998,2 49727  53.2174 325.8533 0001260  68.7712 291.3415 15.08848244 36088,6917.855,95.437,540.592,538.849,0.0
49727.0,STARLINK-3242,PAYLOAD,2022-07-28 14:20:57,15.08850356,0.0001262999999999,53.2174,325.2585,69.6584,290.4544,0.00020602,2.993e-05,0.0,0 STARLINK-3242,1 49727U 21115D   22209.59788804  .00002993  00000-0  20602-3 0  9999,2 49727  53.2174 325.2585 0001263  69.6584 290.4544 15.08850356 37215,6917.849,95.437,540.587,538.84,0.0
49727.0,STARLINK-3242,PAYLOAD,2022-07-29 07:50:12,15.08842471,0.0001252,53.2171,321.9873,71.3009,288.8119,2.4535e-05,1.03e-06,0.0,0 STARLINK-3242,1 49727U 21115D   22210.32653495  .00000103  00000-0  24535-4 0  9990,2 49727  53.2171 321.9873 0001252  71.3009 288.8119 15.08842471 36212,6917.873000000001,95.437,540.604,538.872,0.0
49727.0,STARLINK-3242,PAYLOAD,2022-07-29 17:22:31,15.08845463,0.000123,53.2171,320.2033,67.7054,292.4068,2.1098e-05,4.8e-07,0.0,0 STARLINK-3242,1 49727U 21115D   22210.72397117  .00000048  00000-0  21098-4 0  9999,2 49727  53.2171 320.2033 0001230  67.7054 292.4068 15.08845463 36271,6917.864000000001,95.437,540.58,538.878,0.0
49727.0,STARLINK-3242,PAYLOAD,2022-07-30 14:02:32,15.08838676,0.000118,53.2173,316.338,65.7825,294.3291,-8.4035e-05,-1.625e-05,0.0,0 STARLINK-3242,1 49727U 21115D   22211.58509637 -.00001625  00000-0 -84035-4 0  9990,2 49727  53.2173 316.3380 0001180  65.7825 294.3291 15.08838676 36404,6917.884,95.438,540.566,538.933,0.0
